start=new Date('2021-11-30T00:00:00.000Z').valueOf();
sats=[{"MEAN_ELEMENT_THEORY":"SGP4","MEAN_ANOMALY":"289.4468","RCS_SIZE":"LARGE","EPHEMERIS_TYPE":"0","INCLINATION":"53.0539","PERIAPSIS":"545.872","MEAN_MOTION":"15.06397721","OBJECT_NAME":"STARLINK-2076","BSTAR":"0.00006731300000","LAUNCH_DATE":"2021-01-20","ECCENTRICITY":"0.00019470","MEAN_MOTION_DOT":"0.00000721","CLASSIFICATION_TYPE":"U","TIME_SYSTEM":"UTC","OBJECT_ID":"2021-005P","REF_FRAME":"TEME","OBJECT_TYPE":"PAYLOAD","CENTER_NAME":"EARTH","FILE":"3226898","APOAPSIS":"548.569","TLE_LINE1":"1 47362U 21005P   21333.42445745  .00000721  00000-0  67313-4 0  9991","EPOCH":"2021-11-29T10:11:13.123680","ARG_OF_PERICENTER":"70.6731","COUNTRY_CODE":"US","RA_OF_ASC_NODE":"230.4167","SITE":"AFETR","MEAN_MOTION_DDOT":"0.0000000000000","SEMIMAJOR_AXIS":"6925.356","NORAD_CAT_ID":"47362","REV_AT_EPOCH":"4772","ELEMENT_SET_NO":"999","GP_ID":"190721842","PERIOD":"95.592","DECAY_DATE":null,"TLE_LINE2":"2 47362  53.0539 230.4167 0001947  70.6731 289.4468 15.06397721 47729"},{"OBJECT_ID":"2021-005Q","TIME_SYSTEM":"UTC","CENTER_NAME":"EARTH","REF_FRAME":"TEME","OBJECT_TYPE":"PAYLOAD","APOAPSIS":"548.687","TLE_LINE1":"1 47363U 21005Q   21333.42814475 -.00000121  00000-0  10797-4 0  9991","FILE":"3226898","PERIAPSIS":"545.816","MEAN_ELEMENT_THEORY":"SGP4","MEAN_ANOMALY":"290.2223","EPHEMERIS_TYPE":"0","RCS_SIZE":"LARGE","INCLINATION":"53.0543","MEAN_MOTION":"15.06387571","LAUNCH_DATE":"2021-01-20","BSTAR":"0.00001079700000","ECCENTRICITY":"0.00020730","CLASSIFICATION_TYPE":"U","MEAN_MOTION_DOT":"-0.00000121","OBJECT_NAME":"STARLINK-2077","NORAD_CAT_ID":"47363","REV_AT_EPOCH":"4772","SEMIMAJOR_AXIS":"6925.387","GP_ID":"190722094","ELEMENT_SET_NO":"999","PERIOD":"95.593","TLE_LINE2":"2 47363  53.0543 230.3937 0002073  69.8989 290.2223 15.06387571 47726","DECAY_DATE":null,"ARG_OF_PERICENTER":"69.8989","EPOCH":"2021-11-29T10:16:31.706400","SITE":"AFETR","RA_OF_ASC_NODE":"230.3937","COUNTRY_CODE":"US","MEAN_MOTION_DDOT":"0.0000000000000"},{"RCS_SIZE":"LARGE","EPHEMERIS_TYPE":"0","INCLINATION":"53.0525","MEAN_ELEMENT_THEORY":"SGP4","MEAN_ANOMALY":"331.5360","PERIAPSIS":"307.538","MEAN_MOTION":"15.88006727","OBJECT_NAME":"STARLINK-2079","MEAN_MOTION_DOT":"0.01433605","CLASSIFICATION_TYPE":"U","ECCENTRICITY":"0.00005020","LAUNCH_DATE":"2021-01-20","BSTAR":"0.00458880000000","OBJECT_ID":"2021-005R","TIME_SYSTEM":"UTC","OBJECT_TYPE":"PAYLOAD","REF_FRAME":"TEME","CENTER_NAME":"EARTH","FILE":"3226898","TLE_LINE1":"1 47364U 21005R   21333.40793212  .01433605  00000-0  45888-2 0  9999","APOAPSIS":"308.210","EPOCH":"2021-11-29T09:47:25.335168","ARG_OF_PERICENTER":"28.5692","COUNTRY_CODE":"US","RA_OF_ASC_NODE":"219.9399","SITE":"AFETR","MEAN_MOTION_DDOT":"0.0000000000000","SEMIMAJOR_AXIS":"6686.009","REV_AT_EPOCH":"4786","NORAD_CAT_ID":"47364","PERIOD":"90.680","ELEMENT_SET_NO":"999","GP_ID":"190722844","DECAY_DATE":null,"TLE_LINE2":"2 47364  53.0525 219.9399 0000502  28.5692 331.5360 15.88006727 47867"},{"APOAPSIS":"343.520","TLE_LINE1":"1 47365U 21005S   21333.66486295  .00007367  00000-0  48880-4 0  9996","FILE":"3227094","OBJECT_ID":"2021-005S","TIME_SYSTEM":"UTC","CENTER_NAME":"EARTH","REF_FRAME":"TEME","OBJECT_TYPE":"PAYLOAD","ECCENTRICITY":"0.00058350","LAUNCH_DATE":"2021-01-20","BSTAR":"0.00004888000000","MEAN_MOTION_DOT":"0.00007367","CLASSIFICATION_TYPE":"U","OBJECT_NAME":"STARLINK-2080","PERIAPSIS":"335.680","MEAN_ANOMALY":"76.3261","MEAN_ELEMENT_THEORY":"SGP4","RCS_SIZE":"LARGE","INCLINATION":"53.0464","EPHEMERIS_TYPE":"0","MEAN_MOTION":"15.76770425","TLE_LINE2":"2 47365  53.0464 107.6506 0005835 283.7109  76.3261 15.76770425 49467","DECAY_DATE":null,"NORAD_CAT_ID":"47365","REV_AT_EPOCH":"4946","SEMIMAJOR_AXIS":"6717.735","GP_ID":"190750688","ELEMENT_SET_NO":"999","PERIOD":"91.326","SITE":"AFETR","RA_OF_ASC_NODE":"107.6506","COUNTRY_CODE":"US","MEAN_MOTION_DDOT":"0.0000000000000","ARG_OF_PERICENTER":"283.7109","EPOCH":"2021-11-29T15:57:24.158880"},{"ARG_OF_PERICENTER":"67.0327","EPOCH":"2021-11-29T10:53:40.153344","SITE":"AFETR","COUNTRY_CODE":"US","RA_OF_ASC_NODE":"230.2799","MEAN_MOTION_DDOT":"0.0000000000000","REV_AT_EPOCH":"4772","NORAD_CAT_ID":"47366","SEMIMAJOR_AXIS":"6925.332","PERIOD":"95.592","GP_ID":"190721343","ELEMENT_SET_NO":"999","TLE_LINE2":"2 47366  53.0559 230.2799 0002057  67.0327 293.0879 15.06405424 47725","DECAY_DATE":null,"PERIAPSIS":"545.772","INCLINATION":"53.0559","RCS_SIZE":"LARGE","EPHEMERIS_TYPE":"0","MEAN_ANOMALY":"293.0879","MEAN_ELEMENT_THEORY":"SGP4","MEAN_MOTION":"15.06405424","MEAN_MOTION_DOT":"0.00001196","CLASSIFICATION_TYPE":"U","BSTAR":"0.00009919300000","LAUNCH_DATE":"2021-01-20","ECCENTRICITY":"0.00020570","OBJECT_NAME":"STARLINK-2081","TIME_SYSTEM":"UTC","OBJECT_ID":"2021-005T","CENTER_NAME":"EARTH","OBJECT_TYPE":"PAYLOAD","REF_FRAME":"TEME","TLE_LINE1":"1 47366U 21005T   21333.45393696  .00001196  00000-0  99193-4 0  9993","APOAPSIS":"548.621","FILE":"3226898"},{"ARG_OF_PERICENTER":"75.9055","EPOCH":"2021-11-29T09:55:16.813056","MEAN_MOTION_DDOT":"0.0000000000000","SITE":"AFETR","RA_OF_ASC_NODE":"230.4734","COUNTRY_CODE":"US","PERIOD":"95.592","GP_ID":"190725799","ELEMENT_SET_NO":"999","REV_AT_EPOCH":"4772","NORAD_CAT_ID":"47367","SEMIMAJOR_AXIS":"6925.320","TLE_LINE2":"2 47367  53.0546 230.4734 0001993  75.9055 284.2155 15.06409291 47722","DECAY_DATE":null,"MEAN_MOTION":"15.06409291","PERIAPSIS":"545.805","INCLINATION":"53.0546","RCS_SIZE":"LARGE","EPHEMERIS_TYPE":"0","MEAN_ANOMALY":"284.2155","MEAN_ELEMENT_THEORY":"SGP4","CLASSIFICATION_TYPE":"U","MEAN_MOTION_DOT":"0.00000121","LAUNCH_DATE":"2021-01-20","BSTAR":"0.00002704300000","ECCENTRICITY":"0.00019930","OBJECT_NAME":"STARLINK-2082","CENTER_NAME":"EARTH","OBJECT_TYPE":"PAYLOAD","REF_FRAME":"TEME","TIME_SYSTEM":"UTC","OBJECT_ID":"2021-005U","APOAPSIS":"548.565","TLE_LINE1":"1 47367U 21005U   21333.41338904  .00000121  00000-0  27043-4 0  9993","FILE":"3226975"},{"CENTER_NAME":"EARTH","OBJECT_TYPE":"PAYLOAD","REF_FRAME":"TEME","OBJECT_ID":"2021-005V","TIME_SYSTEM":"UTC","TLE_LINE1":"1 47368U 21005V   21333.80410580  .00000112  00000-0  26466-4 0  9996","APOAPSIS":"548.791","FILE":"3227094","MEAN_MOTION":"15.06396291","PERIAPSIS":"545.659","RCS_SIZE":"LARGE","EPHEMERIS_TYPE":"0","INCLINATION":"53.0527","MEAN_ANOMALY":"292.3117","MEAN_ELEMENT_THEORY":"SGP4","MEAN_MOTION_DOT":"0.00000112","CLASSIFICATION_TYPE":"U","LAUNCH_DATE":"2021-01-20","BSTAR":"0.00002646600000","ECCENTRICITY":"0.00022610","OBJECT_NAME":"STARLINK-2084","PERIOD":"95.592","ELEMENT_SET_NO":"999","GP_ID":"190749437","REV_AT_EPOCH":"4778","NORAD_CAT_ID":"47368","SEMIMAJOR_AXIS":"6925.360","TLE_LINE2":"2 47368  53.0527 228.7080 0002261  67.8112 292.3117 15.06396291 47788","DECAY_DATE":null,"ARG_OF_PERICENTER":"67.8112","EPOCH":"2021-11-29T19:17:54.741120","MEAN_MOTION_DDOT":"0.0000000000000","SITE":"AFETR","COUNTRY_CODE":"US","RA_OF_ASC_NODE":"228.7080"},{"TLE_LINE2":"2 47369  53.0544 211.9658 0002083  68.0657 292.0553 15.06401400 47951","DECAY_DATE":null,"REV_AT_EPOCH":"4795","NORAD_CAT_ID":"47369","SEMIMAJOR_AXIS":"6925.344","PERIOD":"95.592","GP_ID":"190721593","ELEMENT_SET_NO":"999","SITE":"AFETR","COUNTRY_CODE":"US","RA_OF_ASC_NODE":"211.9658","MEAN_MOTION_DDOT":"0.0000000000000","ARG_OF_PERICENTER":"68.0657","EPOCH":"2021-11-29T01:54:56.562048","APOAPSIS":"548.652","TLE_LINE1":"1 47369U 21005W   21333.07982132 -.00000012  00000-0  18104-4 0  9993","FILE":"3226898","TIME_SYSTEM":"UTC","OBJECT_ID":"2021-005W","CENTER_NAME":"EARTH","OBJECT_TYPE":"PAYLOAD","REF_FRAME":"TEME","MEAN_MOTION_DOT":"-0.00000012","CLASSIFICATION_TYPE":"U","LAUNCH_DATE":"2021-01-20","BSTAR":"0.00001810400000","ECCENTRICITY":"0.00020830","OBJECT_NAME":"STARLINK-2085","PERIAPSIS":"545.767","RCS_SIZE":"LARGE","EPHEMERIS_TYPE":"0","INCLINATION":"53.0544","MEAN_ANOMALY":"292.0553","MEAN_ELEMENT_THEORY":"SGP4","MEAN_MOTION":"15.06401400"},{"OBJECT_NAME":"STARLINK-2086","LAUNCH_DATE":"2021-01-20","BSTAR":"0.00011582000000","ECCENTRICITY":"0.00022580","MEAN_MOTION_DOT":"0.00001444","CLASSIFICATION_TYPE":"U","MEAN_ELEMENT_THEORY":"SGP4","MEAN_ANOMALY":"284.1039","EPHEMERIS_TYPE":"0","RCS_SIZE":"LARGE","INCLINATION":"53.0575","PERIAPSIS":"545.661","MEAN_MOTION":"15.06396220","FILE":"3227094","TLE_LINE1":"1 47370U 21005X   21333.63455709  .00001444  00000-0  11582-3 0  9993","APOAPSIS":"548.789","OBJECT_ID":"2021-005X","TIME_SYSTEM":"UTC","REF_FRAME":"TEME","OBJECT_TYPE":"PAYLOAD","CENTER_NAME":"EARTH","COUNTRY_CODE":"US","RA_OF_ASC_NODE":"189.4632","SITE":"AFETR","MEAN_MOTION_DDOT":"0.0000000000000","EPOCH":"2021-11-29T15:13:45.732576","ARG_OF_PERICENTER":"76.0201","DECAY_DATE":null,"TLE_LINE2":"2 47370  53.0575 189.4632 0002258  76.0201 284.1039 15.06396220 48322","SEMIMAJOR_AXIS":"6925.360","NORAD_CAT_ID":"47370","REV_AT_EPOCH":"4832","ELEMENT_SET_NO":"999","GP_ID":"190750917","PERIOD":"95.592"},{"OBJECT_ID":"2021-005Y","TIME_SYSTEM":"UTC","OBJECT_TYPE":"PAYLOAD","REF_FRAME":"TEME","CENTER_NAME":"EARTH","FILE":"3227094","APOAPSIS":"548.602","TLE_LINE1":"1 47371U 21005Y   21333.75249995  .00002099  00000-0  15980-3 0  9998","INCLINATION":"53.0543","RCS_SIZE":"LARGE","EPHEMERIS_TYPE":"0","MEAN_ANOMALY":"285.5353","MEAN_ELEMENT_THEORY":"SGP4","PERIAPSIS":"545.853","MEAN_MOTION":"15.06395390","OBJECT_NAME":"STARLINK-2088","CLASSIFICATION_TYPE":"U","MEAN_MOTION_DOT":"0.00002099","LAUNCH_DATE":"2021-01-20","BSTAR":"0.00015980000000","ECCENTRICITY":"0.00019850","SEMIMAJOR_AXIS":"6925.363","REV_AT_EPOCH":"4777","NORAD_CAT_ID":"47371","PERIOD":"95.592","ELEMENT_SET_NO":"999","GP_ID":"190749687","DECAY_DATE":null,"TLE_LINE2":"2 47371  53.0543 228.9388 0001985  74.5855 285.5353 15.06395390 47778","EPOCH":"2021-11-29T18:03:35.995680","ARG_OF_PERICENTER":"74.5855","RA_OF_ASC_NODE":"228.9388","COUNTRY_CODE":"US","SITE":"AFETR","MEAN_MOTION_DDOT":"0.0000000000000"}];
